OBJECT_NAME,OBJECT_ID,EPOCH,MEAN_MOTION,ECCENTRICITY,INCLINATION,RA_OF_ASC_NODE,ARG_OF_PERICENTER,MEAN_ANOMALY,EPHEMERIS_TYPE,CLASSIFICATION_TYPE,NORAD_CAT_ID,ELEMENT_SET_NO,REV_AT_EPOCH,BSTAR,MEAN_MOTION_DOT,MEAN_MOTION_DDOT
COSMO-SKYMED 1,2007-023A,2026-07-02T20:11:31.416576,14.97178003,.0001329,97.8852,15.8293,82.7913,277.3459,0,U,31598,999,3213,.18898E-3,.2124E-4,0
COSMOS 2428,2007-029A,2026-07-02T18:57:01.161792,14.12928946,.0007141,70.9378,321.7172,105.0826,255.1086,0,U,31792,999,98035,.69688E-4,.82E-6,0
SL-16 R/B,2007-029B,2026-07-02T18:05:28.438368,14.14852771,.0002377,70.9765,290.5058,261.4453,260.0962,0,U,31793,999,98164,-.96398E-4,-.234E-5,0
KORONAS-FOTON,2009-003A,2026-07-02T20:56:43.207584,15.46056137,.0012655,82.4298,155.8926,99.6569,260.6110,0,U,33504,999,96352,.2914E-3,.14325E-3,0
CZ-2C R/B,2011-030B,2026-07-02T20:15:21.003840,14.81511046,.0051699,97.8662,138.9484,337.1718,75.8034,0,U,37731,999,80714,.19059E-3,.1474E-4,0
H-2A R/B,2012-025E,2026-07-02T21:03:41.986656,14.95794454,.004238,98.4834,160.3175,296.5170,63.1707,0,U,38341,999,76543,.33003E-3,.3678E-4,0
SHIJIAN-16 (SJ-16),2013-057A,2026-07-02T20:33:32.613408,14.92637495,.0016317,74.9737,327.0032,194.2400,165.8331,0,U,39358,999,68868,.13067E-3,.132E-4,0
SL-4 R/B,2014-021B,2026-07-02T21:01:17.813568,15.42263865,.0090452,51.6052,133.8949,163.2563,197.1442,0,U,39679,999,67403,.26102E-3,.12798E-3,0
ALOS-2,2014-029A,2026-07-02T19:55:11.607744,14.79471535,.0001616,97.9231,280.7697,90.0976,270.0420,0,U,39766,999,65389,.15289E-3,.1091E-4,0
YAOGAN-29,2015-069A,2026-07-02T19:55:41.762208,14.83097000,.0001663,98.0017,212.4872,30.4015,329.7294,0,U,41038,999,57294,.54774E-4,.392E-5,0
ASTRO-H (HITOMI),2016-012A,2026-07-02T18:15:57.927168,15.10584580,.0009593,31.0004,333.6033,49.4068,310.7404,0,U,41337,999,56964,.18505E-3,.3229E-4,0
HXMT (HUIYAN),2017-034A,2026-07-02T20:31:02.489952,15.18595345,.0032743,43.0144,95.7923,245.6784,114.0644,0,U,42758,999,50004,.25752E-3,.5258E-4,0
SAOCOM 1A,2018-076A,2026-07-02T19:09:49.714848,14.82159457,.0001524,97.8877,10.3196,79.6894,280.4491,0,U,43641,999,41841,.658E-4,.472E-5,0
H-2A R/B,2018-084L,2026-07-02T17:34:27.475680,15.45765966,.002175,98.8551,66.0241,346.2519,13.8130,0,U,43682,999,42352,.44927E-3,.21852E-3,0
SAOCOM 1B,2020-059A,2026-07-02T19:54:46.117152,14.82152835,.0001619,97.8883,9.4461,81.2981,278.8415,0,U,46265,999,31580,.11787E-3,.886E-5,0
CSS (TIANHE),2021-035A,2026-07-02T01:47:33.745632,15.61404719,.00087824,41.4669,231.3605,197.5526,162.5011,0,U,48274,999,29549,.70551523E-4,.5862E-4,0
COSMOS 2550,2021-056A,2026-07-02T20:52:01.231680,15.33880162,.0008372,67.1430,52.4677,268.4514,91.5682,0,U,48865,999,28112,.18052E-3,.5761E-4,0
CZ-2C R/B,2022-058K,2026-07-02T17:16:13.390752,15.62969822,.003144,50.1859,82.6344,331.2702,28.6539,0,U,52794,999,22807,.41E-3,.38551E-3,0
CZ-2C R/B,2022-132E,2026-07-02T17:51:11.487744,15.73474922,.0012301,97.2893,191.4823,32.6928,327.5095,0,U,54039,999,20839,.51923E-3,.72758E-3,0
GSLV R/B,2022-138AN,2026-07-02T19:45:43.239168,14.97332034,.0024183,87.3814,127.7337,92.5031,267.8970,0,U,54149,999,20115,.24894E-3,.2933E-4,0
XRISM,2023-137A,2026-07-02T15:11:15.496800,15.12598210,.0007763,31.0015,259.5443,119.7608,240.3804,0,U,57800,999,15520,.28741E-3,.5244E-4,0
ACS3,2024-077B,2026-07-02T16:54:12.345120,13.94758402,.0108112,97.1705,99.0432,49.9893,311.0702,0,U,59588,999,11020,.26027E-1,.36756E-3,0
CZ-8A R/B,2025-231K,2026-07-02T20:14:49.060896,14.30159318,.0116482,50.0053,332.7072,279.1280,79.6472,0,U,66004,999,3718,.56635E-4,-.5E-7,0
SZ-21 MODULE,2025-246C,2026-07-02T19:03:14.638752,15.77749354,.0005303,41.4699,210.0293,125.3389,234.7952,0,U,66515,999,3620,.25308E-3,.43719E-3,0
