COSMO-SKYMED 1          
1 31598U 07023A   26183.84133584  .00002124  00000+0  18898-3 0  9999
2 31598  97.8852  15.8293 0001329  82.7913 277.3459 14.97178003 32136
COSMOS 2428             
1 31792U 07029A   26183.78959678  .00000082  00000+0  69688-4 0  9999
2 31792  70.9378 321.7172 0007141 105.0826 255.1086 14.12928946980354
SL-16 R/B               
1 31793U 07029B   26183.75380137 -.00000234  00000+0 -96398-4 0  9994
2 31793  70.9765 290.5058 0002377 261.4453 260.0962 14.14852771981645
KORONAS-FOTON           
1 33504U 09003A   26183.87272231  .00014325  00000+0  29140-3 0  9992
2 33504  82.4298 155.8926 0012655  99.6569 260.6110 15.46056137963528
CZ-2C R/B               
1 37731U 11030B   26183.84399310  .00001474  00000+0  19059-3 0  9995
2 37731  97.8662 138.9484 0051699 337.1718  75.8034 14.81511046807146
H-2A R/B                
1 38341U 12025E   26183.87756929  .00003678  00000+0  33003-3 0  9997
2 38341  98.4834 160.3175 0042380 296.5170  63.1707 14.95794454765438
SHIJIAN-16 (SJ-16)      
1 39358U 13057A   26183.85662747  .00001320  00000+0  13067-3 0  9994
2 39358  74.9737 327.0032 0016317 194.2400 165.8331 14.92637495688685
SL-4 R/B                
1 39679U 14021B   26183.87590062  .00012798  00000+0  26102-3 0  9999
2 39679  51.6052 133.8949 0090452 163.2563 197.1442 15.42263865674038
ALOS-2                  
1 39766U 14029A   26183.82999546  .00001091  00000+0  15289-3 0  9997
2 39766  97.9231 280.7697 0001616  90.0976 270.0420 14.79471535653890
YAOGAN-29               
1 41038U 15069A   26183.83034447  .00000392  00000+0  54774-4 0  9994
2 41038  98.0017 212.4872 0001663  30.4015 329.7294 14.83097000572943
ASTRO-H (HITOMI)        
1 41337U 16012A   26183.76108712  .00003229  00000+0  18505-3 0  9997
2 41337  31.0004 333.6033 0009593  49.4068 310.7404 15.10584580569642
HXMT (HUIYAN)           
1 42758U 17034A   26183.85488993  .00005258  00000+0  25752-3 0  9998
2 42758  43.0144  95.7923 0032743 245.6784 114.0644 15.18595345500049
SAOCOM 1A               
1 43641U 18076A   26183.79849207  .00000472  00000+0  65800-4 0  9991
2 43641  97.8877  10.3196 0001524  79.6894 280.4491 14.82159457418413
H-2A R/B                
1 43682U 18084L   26183.73226245  .00021852  00000+0  44927-3 0  9991
2 43682  98.8551  66.0241 0021750 346.2519  13.8130 15.45765966423521
SAOCOM 1B               
1 46265U 20059A   26183.82970043  .00000886  00000+0  11787-3 0  9990
2 46265  97.8883   9.4461 0001619  81.2981 278.8415 14.82152835315809
CSS (TIANHE)            
1 48274U 21035A   26183.07469613  .00005862  00000+0  70552-4 0  9995
2 48274  41.4669 231.3605 0008782 197.5526 162.5011 15.61404719295490
COSMOS 2550             
1 48865U 21056A   26183.86945870  .00005761  00000+0  18052-3 0  9999
2 48865  67.1430  52.4677 0008372 268.4514  91.5682 15.33880162281127
CZ-2C R/B               
1 52794U 22058K   26183.71959943  .00038551  00000+0  41000-3 0  9990
2 52794  50.1859  82.6344 0031440 331.2702  28.6539 15.62969822228076
CZ-2C R/B               
1 54039U 22132E   26183.74388296  .00072758  00000+0  51923-3 0  9999
2 54039  97.2893 191.4823 0012301  32.6928 327.5095 15.73474922208393
GSLV R/B                
1 54149U 22138AN  26183.82341712  .00002933  00000+0  24894-3 0  9993
2 54149  87.3814 127.7337 0024183  92.5031 267.8970 14.97332034201158
XRISM                   
1 57800U 23137A   26183.63281825  .00005244  00000+0  28741-3 0  9990
2 57800  31.0015 259.5443 0007763 119.7608 240.3804 15.12598210155207
ACS3                    
1 59588U 24077B   26183.70430955  .00036756  00000+0  26027-1 0  9992
2 59588  97.1705  99.0432 0108112  49.9893 311.0702 13.94758402110209
CZ-8A R/B               
1 66004U 25231K   26183.84362339 -.00000005  00000+0  56635-4 0  9991
2 66004  50.0053 332.7072 0116482 279.1280  79.6472 14.30159318 37185
SZ-21 MODULE            
1 66515U 25246C   26183.79391943  .00043719  00000+0  25308-3 0  9991
2 66515  41.4699 210.0293 0005303 125.3389 234.7952 15.77749354 36202
